{
    "links": {
        "self": "http://www.neowsapp.com/rest/v1/neo/3655548?api_key=iIulBulltgU6a56xZRHN4H3l9WmuAYTsLGpBGhQ2"
    },
    "id": "3655548",
    "neo_reference_id": "3655548",
    "name": "(2013 YA38)",
    "designation": "2013 YA38",
    "nasa_jpl_url": "http://ssd.jpl.nasa.gov/sbdb.cgi?sstr=3655548",
    "absolute_magnitude_h": 20.8,
    "estimated_diameter": {
        "kilometers": {
            "estimated_diameter_min": 0.1838886721,
            "estimated_diameter_max": 0.411187571
        },
        "meters": {
            "estimated_diameter_min": 183.8886720703,
            "estimated_diameter_max": 411.1875710413
        },
        "miles": {
            "estimated_diameter_min": 0.1142630881,
            "estimated_diameter_max": 0.2555000322
        },
        "feet": {
            "estimated_diameter_min": 603.309310875,
            "estimated_diameter_max": 1349.040630575
        }
    },
    "is_potentially_hazardous_asteroid": false,
    "close_approach_data": [
        {
            "close_approach_date": "2013-11-22",
            "close_approach_date_full": "2013-Nov-22 21:19",
            "epoch_date_close_approach": 1385155140000,
            "relative_velocity": {
                "kilometers_per_second": "16.5599914853",
                "kilometers_per_hour": "59615.9693469036",
                "miles_per_hour": "37043.044953358"
            },
            "miss_distance": {
                "astronomical": "0.0613635359",
                "lunar": "23.8704154651",
                "kilometers": "9179854.266308533",
                "miles": "5704096.9385944354"
            },
            "orbiting_body": "Earth"
        }
    ],
    "orbital_data": {
        "orbit_id": "8",
        "orbit_determination_date": "2017-04-06 08:43:11",
        "first_observation_date": "2013-12-27",
        "last_observation_date": "2014-01-05",
        "data_arc_in_days": 9,
        "observations_used": 60,
        "orbit_uncertainty": "8",
        "minimum_orbit_intersection": ".0582152",
        "jupiter_tisserand_invariant": "3.074",
        "epoch_osculation": "2456656.5",
        "eccentricity": ".6952320331871749",
        "semi_major_axis": "2.501374017563877",
        "inclination": "4.10787317083221",
        "ascending_node_longitude": "187.2807608305675",
        "orbital_period": "1444.995113561172",
        "perihelion_distance": ".7623386735713709",
        "perihelion_argument": "172.3257781093424",
        "aphelion_distance": "4.240409361556384",
        "perihelion_time": "2456581.074175197892",
        "mean_anomaly": "18.79127249215392",
        "mean_motion": ".2491357905791007",
        "equinox": "J2000",
        "orbit_class": {
            "orbit_class_type": "APO",
            "orbit_class_description": "Near-Earth asteroid orbits which cross the Earth’s orbit similar to that of 1862 Apollo",
            "orbit_class_range": "a (semi-major axis) > 1.0 AU; q (perihelion) < 1.017 AU"
        }
    },
    "is_sentry_object": false
}